NORAD_CAT_ID,OBJECT_NAME,OBJECT_TYPE,EPOCH,MEAN_MOTION,ECCENTRICITY,INCLINATION,RA_OF_ASC_NODE,ARG_OF_PERICENTER,MEAN_ANOMALY,BSTAR,MEAN_MOTION_DOT,MEAN_MOTION_DDOT,TLE_LINE0,TLE_LINE1,TLE_LINE2,SEMIMAJOR_AXIS,PERIOD,APOGEE,PERIGEE,DECAYED
55938.0,STARLINK-5909,PAYLOAD,2024-07-05 14:15:01,14.98334202,0.0003043,70.0003,27.7878,270.8282,89.2528,1.4092e-05,7.5e-07,0.0,0 STARLINK-5909,1 55938U 23037AA  24187.59376254  .00000075  00000-0  14092-4 0  9990,2 55938  70.0003  27.7878 0003043 270.8282  89.2528 14.98334202 72290,6950.18,96.107,574.16,569.93,0.0
55938.0,STARLINK-5909,PAYLOAD,2024-07-05 20:39:33,14.98335841,0.0002981,70.0004,27.1149,269.7272,90.3545,3.4515e-05,3.19e-06,0.0,0 STARLINK-5909,1 55938U 23037AA  24187.86080015  .00000319  00000-0  34515-4 0  9990,2 55938  70.0004  27.1149 0002981 269.7272  90.3545 14.98335841 72676,6950.175,96.107,574.112,569.968,0.0
55938.0,STARLINK-5909,PAYLOAD,2024-07-05 22:15:41,14.98336631,0.0002972,70.0005,26.9466,269.625,90.4569,4.3022e-05,4.2e-06,0.0,0 STARLINK-5909,1 55938U 23037AA  24187.92755914  .00000420  00000-0  43022-4 0  9990,2 55938  70.0005  26.9466 0002972 269.6250  90.4569 14.98336631 72340,6950.172,96.107,574.103,569.972,0.0
55938.0,STARLINK-5909,PAYLOAD,2024-07-06 06:16:21,14.98330324,0.0002961,70.0006,26.1047,271.0587,89.0233,-2.3333e-05,-3.71e-06,0.0,0 STARLINK-5909,1 55938U 23037AA  24188.26136381 -.00000371  00000-0 -23333-4 0  9999,2 55938  70.0006  26.1047 0002961 271.0587  89.0233 14.98330324 72734,6950.192,96.107,574.115,569.999,0.0
55938.0,STARLINK-5909,PAYLOAD,2024-07-06 14:17:02,14.98327329,0.0002912,70.0007,25.2635,268.3813,91.7012,-3.7994e-05,-5.46e-06,0.0,0 STARLINK-5909,1 55938U 23037AA  24188.59516592 -.00000546  00000-0 -37994-4 0  9993,2 55938  70.0007  25.2635 0002912 268.3813  91.7012 14.98327329 72449,6950.201,96.107,574.09,570.042,0.0
55938.0,STARLINK-5909,PAYLOAD,2024-07-06 22:17:42,14.98326238,0.0002948,70.0007,24.4216,270.1576,89.9245,-4.705e-05,-6.54e-06,0.0,0 STARLINK-5909,1 55938U 23037AA  24188.92896745 -.00000654  00000-0 -47050-4 0  9995,2 55938  70.0007  24.4216 0002948 270.1576  89.9245 14.98326238 72491,6950.205,96.107,574.118,570.021,0.0
55938.0,STARLINK-5909,PAYLOAD,2024-07-07 12:42:55,14.98330919,0.0002971,70.0006,22.9067,270.3364,89.7454,-4.2511e-05,-6e-06,0.0,0 STARLINK-5909,1 55938U 23037AA  24189.52980475 -.00000600  00000-0 -42511-4 0  9994,2 55938  70.0006  22.9067 0002971 270.3364  89.7454 14.98330919 72929,6950.19,96.107,574.12,569.99,0.0
55938.0,STARLINK-5909,PAYLOAD,2024-07-07 14:19:03,14.98332623,0.0002992,70.0006,22.7383,270.2105,89.8712,-2.5426e-05,-3.96e-06,0.0,0 STARLINK-5909,1 55938U 23037AA  24189.59656294 -.00000396  00000-0 -25426-4 0  9998,2 55938  70.0006  22.7383 0002992 270.2105  89.8712 14.98332623 72598,6950.185,96.107,574.129,569.97,0.0
55938.0,STARLINK-5909,PAYLOAD,2024-07-08 12:44:56,14.98324129,0.0003077,70.0003,20.3813,270.9139,89.1668,3.2486e-05,2.95e-06,0.0,0 STARLINK-5909,1 55938U 23037AA  24190.53120569  .00000295  00000-0  32486-4 0  9995,2 55938  70.0003  20.3813 0003077 270.9139  89.1668 14.98324129 73075,6950.211,96.107,574.215,569.937,0.0
55938.0,STARLINK-5909,PAYLOAD,2024-07-08 14:21:04,14.98324694,0.0003074,70.0003,20.213,270.8865,89.1942,3.6851e-05,3.47e-06,0.0,0 STARLINK-5909,1 55938U 23037AA  24190.59796540  .00000347  00000-0  36851-4 0  9997,2 55938  70.0003  20.2130 0003074 270.8865  89.1942 14.98324694 72743,6950.209,96.107,574.211,569.938,0.0
55938.0,STARLINK-5909,PAYLOAD,2024-07-08 22:21:44,14.98328684,0.0003058,70.0004,19.3714,270.1414,89.9395,6.3659e-05,6.67e-06,0.0,0 STARLINK-5909,1 55938U 23037AA  24190.93176279  .00000667  00000-0  63659-4 0  9997,2 55938  70.0004  19.3714 0003058 270.1414  89.9395 14.98328684 72794,6950.197,96.107,574.187,569.937,0.0
55938.0,STARLINK-5909,PAYLOAD,2024-07-09 12:46:56,14.98330692,0.0003024,70.0004,17.8556,270.2798,89.8015,2.585e-05,2.15e-06,0.0,0 STARLINK-5909,1 55938U 23037AA  24191.53260273  .00000215  00000-0  25850-4 0  9992,2 55938  70.0004  17.8556 0003024 270.2798  89.8015 14.98330692 73229,6950.191,96.107,574.157,569.954,0.0
55938.0,STARLINK-5909,PAYLOAD,2024-07-09 14:23:05,14.98329552,0.0003046,70.0003,17.6873,270.2995,89.7815,1.4762e-05,8.3e-07,0.0,0 STARLINK-5909,1 55938U 23037AA  24191.59936366  .00000083  00000-0  14762-4 0  9994,2 55938  70.0003  17.6873 0003046 270.2995  89.7815 14.98329552 72893,6950.194,96.107,574.176,569.942,0.0
55938.0,STARLINK-5909,PAYLOAD,2024-07-09 22:23:45,14.98331877,0.0003037,70.0004,16.8456,270.1328,89.9483,1.8123e-05,1.23e-06,0.0,0 STARLINK-5909,1 55938U 23037AA  24191.93316198  .00000123  00000-0  18123-4 0  9997,2 55938  70.0004  16.8456 0003037 270.1328  89.9483 14.98331877 72943,6950.187,96.107,574.163,569.941,0.0
55938.0,STARLINK-5909,PAYLOAD,2024-07-10 20:49:38,14.98329569,0.0003078,70.0003,14.4892,270.58,89.5007,4.0218e-06,-4.5e-07,0.0,0 STARLINK-5909,1 55938U 23037AA  24192.86780332 -.00000045  00000-0  40218-5 0  9990,2 55938  70.0003  14.4892 0003078 270.5800  89.5007 14.98329569 73421,6950.194,96.107,574.198,569.92,0.0
55938.0,STARLINK-5909,PAYLOAD,2024-07-10 22:25:46,14.98331637,0.0003054,70.0004,14.3208,270.4989,89.5821,2.8474e-05,2.47e-06,0.0,0 STARLINK-5909,1 55938U 23037AA  24192.93456146  .00000247  00000-0  28474-4 0  9993,2 55938  70.0004  14.3208 0003054 270.4989  89.5821 14.98331637 73099,6950.188,96.107,574.175,569.93,0.0
55938.0,STARLINK-5909,PAYLOAD,2024-07-11 14:27:06,14.98331733,0.0002999,70.0007,12.6384,274.4871,85.5946,2.8213e-05,2.44e-06,0.0,0 STARLINK-5909,1 55938U 23037AA  24193.60216119  .00000244  00000-0  28213-4 0  9990,2 55938  70.0007  12.6384 0002999 274.4871  85.5946 14.98331733 73191,6950.188,96.107,574.137,569.968,0.0
55938.0,STARLINK-5909,PAYLOAD,2024-07-12 04:52:19,14.98330626,0.000284,70.0011,11.1231,268.5141,91.5693,9.8759e-06,2.5e-07,0.0,0 STARLINK-5909,1 55938U 23037AA  24194.20300117  .00000025  00000-0  98759-5 0  9999,2 55938  70.0011  11.1231 0002840 268.5141  91.5693 14.98330626 73624,6950.191,96.107,574.03,570.082,0.0
55938.0,STARLINK-5909,PAYLOAD,2024-07-12 14:29:07,14.98330685,0.0002806,70.001,10.1133,268.0933,91.9905,-9.4829e-06,-2.06e-06,0.0,0 STARLINK-5909,1 55938U 23037AA  24194.60356178 -.00000206  00000-0 -94829-5 0  9998,2 55938  70.0010  10.1133 0002806 268.0933  91.9905 14.98330685 73343,6950.191,96.107,574.006,570.106,0.0
55938.0,STARLINK-5909,PAYLOAD,2024-07-12 20:53:39,14.98330221,0.0002863,70.0011,9.4403,265.2267,94.8565,-8.7111e-06,-1.97e-06,0.0,0 STARLINK-5909,1 55938U 23037AA  24194.87060154 -.00000197  00000-0 -87111-5 0  9998,2 55938  70.0011   9.4403 0002863 265.2267  94.8565 14.98330221 73381,6950.192,96.107,574.047,570.067,0.0
55938.0,STARLINK-5909,PAYLOAD,2024-07-13 04:54:20,14.98329503,0.0002877,70.0011,8.5987,266.1724,93.9106,-1.5934e-05,-2.83e-06,0.0,0 STARLINK-5909,1 55938U 23037AA  24195.20440214 -.00000283  00000-0 -15934-4 0  9994,2 55938  70.0011   8.5987 0002877 266.1724  93.9106 14.98329503 73776,6950.194,96.107,574.059,570.06,0.0
55938.0,STARLINK-5909,PAYLOAD,2024-07-13 14:31:08,14.98329051,0.0002877,70.0011,7.5888,265.9137,94.1693,-3.7736e-05,-5.43e-06,0.0,0 STARLINK-5909,1 55938U 23037AA  24195.60496320 -.00000543  00000-0 -37736-4 0  9990,2 55938  70.0011   7.5888 0002877 265.9137  94.1693 14.98329051 73491,6950.196,96.107,574.06,570.061,0.0
55938.0,STARLINK-5909,PAYLOAD,2024-07-13 20:55:40,14.98330398,0.0002913,70.0011,6.9156,267.6499,92.4327,-2.0757e-05,-3.41e-06,0.0,0 STARLINK-5909,1 55938U 23037AA  24195.87200225 -.00000341  00000-0 -20757-4 0  9997,2 55938  70.0011   6.9156 0002913 267.6499  92.4327 14.98330398 73539,6950.192,96.107,574.081,570.032,0.0
55938.0,STARLINK-5909,PAYLOAD,2024-07-14 04:56:21,14.98332345,0.0003151,70.0006,6.0734,266.7872,93.2926,-2.0151e-05,-3.33e-06,0.0,0 STARLINK-5909,1 55938U 23037AA  24196.20580002 -.00000333  00000-0 -20151-4 0  9998,2 55938  70.0006   6.0734 0003151 266.7872  93.2926 14.98332345 73927,6950.186,96.107,574.241,569.861,0.0
55938.0,STARLINK-5909,PAYLOAD,2024-07-14 14:33:09,14.98328122,0.0003166,70.0008,5.0631,269.3735,90.7062,6.9194e-05,7.33e-06,0.0,0 STARLINK-5909,1 55938U 23037AA  24196.60636061  .00000733  00000-0  69194-4 0  9991,2 55938  70.0008   5.0631 0003166 269.3735  90.7062 14.98328122 73647,6950.199,96.107,574.264,569.863,0.0
55938.0,STARLINK-5909,PAYLOAD,2024-07-14 20:57:41,14.9833499,0.0002975,70.0012,4.3909,268.9139,91.1679,6.941e-05,7.35e-06,0.0,0 STARLINK-5909,1 55938U 23037AA  24196.87339635  .00000735  00000-0  69410-4 0  9990,2 55938  70.0012   4.3909 0002975 268.9139  91.1679 14.98334990 73685,6950.177,96.107,574.11,569.975,0.0
55938.0,STARLINK-5909,PAYLOAD,2024-07-15 04:58:22,14.98330382,0.0003085,70.0008,3.5483,270.4859,89.5947,1.9782e-05,1.43e-06,0.0,0 STARLINK-5909,1 55938U 23037AA  24197.20719988  .00000143  00000-0  19782-4 0  9991,2 55938  70.0008   3.5483 0003085 270.4859  89.5947 14.98330382 74072,6950.192,96.107,574.201,569.913,0.0
55938.0,STARLINK-5909,PAYLOAD,2024-07-15 14:35:10,14.98325988,0.0003045,70.001,2.5384,270.2405,89.8405,2.9399e-05,2.58e-06,0.0,0 STARLINK-5909,1 55938U 23037AA  24197.60776313  .00000258  00000-0  29399-4 0  9992,2 55938  70.0010   2.5384 0003045 270.2405  89.8405 14.98325988 73791,6950.205,96.107,574.187,569.954,0.0
55938.0,STARLINK-5909,PAYLOAD,2024-07-15 20:59:42,14.98331843,0.000299,70.0012,1.8649,268.8743,91.2073,4.8528e-05,4.86e-06,0.0,0 STARLINK-5909,1 55938U 23037AA  24197.87479871  .00000486  00000-0  48528-4 0  9998,2 55938  70.0012   1.8649 0002990 268.8743  91.2073 14.98331843 73835,6950.187,96.107,574.13,569.974,0.0
55938.0,STARLINK-5909,PAYLOAD,2024-07-16 13:01:03,14.98332681,0.0002953,70.0014,0.1814,269.9377,90.1444,2.0072e-05,1.47e-06,0.0,0 STARLINK-5909,1 55938U 23037AA  24198.54239806  .00000147  00000-0  20072-4 0  9993,2 55938  70.0014   0.1814 0002953 269.9377  90.1444 14.98332681 74277,6950.185,96.107,574.102,569.997,0.0
